[
    {
        "CCSDS_OMM_VERS": "3.0",
        "COMMENT": "GENERATED VIA SPACE-TRACK.ORG API",
        "CREATION_DATE": "2024-08-10T23:06:21",
        "ORIGINATOR": "18 SPCS",
        "OBJECT_NAME": "TIANHUI 5B",
        "OBJECT_ID": "2023-168C",
        "CENTER_NAME": "EARTH",
        "REF_FRAME": "TEME",
        "TIME_SYSTEM": "UTC",
        "MEAN_ELEMENT_THEORY": "SGP4",
        "EPOCH": "2024-08-10T20:59:43.134720",
        "MEAN_MOTION": "14.87581108",
        "ECCENTRICITY": "0.00021100",
        "INCLINATION": "97.8218",
        "RA_OF_ASC_NODE": "229.9564",
        "ARG_OF_PERICENTER": "96.4203",
        "MEAN_ANOMALY": "263.7254",
        "EPHEMERIS_TYPE": "0",
        "CLASSIFICATION_TYPE": "U",
        "NORAD_CAT_ID": "58201",
        "ELEMENT_SET_NO": "999",
        "REV_AT_EPOCH": "4220",
        "BSTAR": "0.00019480000000",
        "MEAN_MOTION_DOT": "0.00001715",
        "MEAN_MOTION_DDOT": "0.0000000000000",
        "SEMIMAJOR_AXIS": "6983.633",
        "PERIOD": "96.801",
        "APOAPSIS": "606.971",
        "PERIAPSIS": "604.024",
        "OBJECT_TYPE": "PAYLOAD",
        "RCS_SIZE": "LARGE",
        "COUNTRY_CODE": "PRC",
        "LAUNCH_DATE": "2023-10-31",
        "SITE": "TSC",
        "DECAY_DATE": null,
        "FILE": "4427695",
        "GP_ID": "264741918",
        "TLE_LINE0": "0 TIANHUI 5B",
        "TLE_LINE1": "1 58201U 23168C   24223.87480480  .00001715  00000-0  19480-3 0  9997",
        "TLE_LINE2": "2 58201  97.8218 229.9564 0002110  96.4203 263.7254 14.87581108 42208"
    },
    {
        "CCSDS_OMM_VERS": "3.0",
        "COMMENT": "GENERATED VIA SPACE-TRACK.ORG API",
        "CREATION_DATE": "2024-08-10T22:26:16",
        "ORIGINATOR": "18 SPCS",
        "OBJECT_NAME": "DELTA 1 DEB",
        "OBJECT_ID": "1968-069C",
        "CENTER_NAME": "EARTH",
        "REF_FRAME": "TEME",
        "TIME_SYSTEM": "UTC",
        "MEAN_ELEMENT_THEORY": "SGP4",
        "EPOCH": "2024-08-10T20:59:42.029664",
        "MEAN_MOTION": "12.67119192",
        "ECCENTRICITY": "0.01190680",
        "INCLINATION": "101.6391",
        "RA_OF_ASC_NODE": "340.7894",
        "ARG_OF_PERICENTER": "50.6391",
        "MEAN_ANOMALY": "72.1355",
        "EPHEMERIS_TYPE": "0",
        "CLASSIFICATION_TYPE": "U",
        "NORAD_CAT_ID": "3416",
        "ELEMENT_SET_NO": "999",
        "REV_AT_EPOCH": "58919",
        "BSTAR": "0.00017479000000",
        "MEAN_MOTION_DOT": "-0.00000011",
        "MEAN_MOTION_DDOT": "0.0000000000000",
        "SEMIMAJOR_AXIS": "7771.834",
        "PERIOD": "113.644",
        "APOAPSIS": "1486.237",
        "PERIAPSIS": "1301.162",
        "OBJECT_TYPE": "DEBRIS",
        "RCS_SIZE": "SMALL",
        "COUNTRY_CODE": "US",
        "LAUNCH_DATE": "1968-08-16",
        "SITE": "AFWTR",
        "DECAY_DATE": null,
        "FILE": "4427195",
        "GP_ID": "264731005",
        "TLE_LINE0": "0 DELTA 1 DEB",
        "TLE_LINE1": "1  3416U 68069C   24223.87479201 -.00000011  00000-0  17479-3 0  9998",
        "TLE_LINE2": "2  3416 101.6391 340.7894 0119068  50.6391  72.1355 12.67119192589195"
    },
    {
        "CCSDS_OMM_VERS": "3.0",
        "COMMENT": "GENERATED VIA SPACE-TRACK.ORG API",
        "CREATION_DATE": "2024-08-10T22:56:16",
        "ORIGINATOR": "18 SPCS",
        "OBJECT_NAME": "ZHUHAI-1 03E",
        "OBJECT_ID": "2019-060F",
        "CENTER_NAME": "EARTH",
        "REF_FRAME": "TEME",
        "TIME_SYSTEM": "UTC",
        "MEAN_ELEMENT_THEORY": "SGP4",
        "EPOCH": "2024-08-10T20:59:41.563968",
        "MEAN_MOTION": "15.26307785",
        "ECCENTRICITY": "0.00218100",
        "INCLINATION": "97.4989",
        "RA_OF_ASC_NODE": "352.8450",
        "ARG_OF_PERICENTER": "225.0378",
        "MEAN_ANOMALY": "134.9092",
        "EPHEMERIS_TYPE": "0",
        "CLASSIFICATION_TYPE": "U",
        "NORAD_CAT_ID": "44539",
        "ELEMENT_SET_NO": "999",
        "REV_AT_EPOCH": "27242",
        "BSTAR": "0.00132460000000",
        "MEAN_MOTION_DOT": "0.00034660",
        "MEAN_MOTION_DDOT": "0.0000000000000",
        "SEMIMAJOR_AXIS": "6864.998",
        "PERIOD": "94.345",
        "APOAPSIS": "501.836",
        "PERIAPSIS": "471.891",
        "OBJECT_TYPE": "PAYLOAD",
        "RCS_SIZE": "MEDIUM",
        "COUNTRY_CODE": "PRC",
        "LAUNCH_DATE": "2019-09-19",
        "SITE": "JSC",
        "DECAY_DATE": null,
        "FILE": "4427580",
        "GP_ID": "264739592",
        "TLE_LINE0": "0 ZHUHAI-1 03E",
        "TLE_LINE1": "1 44539U 19060F   24223.87478662  .00034660  00000-0  13246-2 0  9999",
        "TLE_LINE2": "2 44539  97.4989 352.8450 0021810 225.0378 134.9092 15.26307785272428"
    },
    {
        "CCSDS_OMM_VERS": "3.0",
        "COMMENT": "GENERATED VIA SPACE-TRACK.ORG API",
        "CREATION_DATE": "2024-08-10T22:36:16",
        "ORIGINATOR": "18 SPCS",
        "OBJECT_NAME": "SL-8 R/B",
        "OBJECT_ID": "1970-028B",
        "CENTER_NAME": "EARTH",
        "REF_FRAME": "TEME",
        "TIME_SYSTEM": "UTC",
        "MEAN_ELEMENT_THEORY": "SGP4",
        "EPOCH": "2024-08-10T20:59:39.962976",
        "MEAN_MOTION": "14.61752960",
        "ECCENTRICITY": "0.00140860",
        "INCLINATION": "74.0395",
        "RA_OF_ASC_NODE": "144.5116",
        "ARG_OF_PERICENTER": "121.1911",
        "MEAN_ANOMALY": "239.0638",
        "EPHEMERIS_TYPE": "0",
        "CLASSIFICATION_TYPE": "U",
        "NORAD_CAT_ID": "4370",
        "ELEMENT_SET_NO": "999",
        "REV_AT_EPOCH": "39320",
        "BSTAR": "0.00044952000000",
        "MEAN_MOTION_DOT": "0.00002215",
        "MEAN_MOTION_DDOT": "0.0000000000000",
        "SEMIMAJOR_AXIS": "7065.656",
        "PERIOD": "98.512",
        "APOAPSIS": "697.474",
        "PERIAPSIS": "677.569",
        "OBJECT_TYPE": "ROCKET BODY",
        "RCS_SIZE": "LARGE",
        "COUNTRY_CODE": "CIS",
        "LAUNCH_DATE": "1970-04-11",
        "SITE": "PKMTR",
        "DECAY_DATE": null,
        "FILE": "4427343",
        "GP_ID": "264734762",
        "TLE_LINE0": "0 SL-8 R/B",
        "TLE_LINE1": "1  4370U 70028B   24223.87476809  .00002215  00000-0  44952-3 0  9990",
        "TLE_LINE2": "2  4370  74.0395 144.5116 0014086 121.1911 239.0638 14.61752960393200"
    },
    {
        "CCSDS_OMM_VERS": "3.0",
        "COMMENT": "GENERATED VIA SPACE-TRACK.ORG API",
        "CREATION_DATE": "2024-08-10T22:56:16",
        "ORIGINATOR": "18 SPCS",
        "OBJECT_NAME": "POEM",
        "OBJECT_ID": "2022-072E",
        "CENTER_NAME": "EARTH",
        "REF_FRAME": "TEME",
        "TIME_SYSTEM": "UTC",
        "MEAN_ELEMENT_THEORY": "SGP4",
        "EPOCH": "2024-08-10T20:59:39.670080",
        "MEAN_MOTION": "15.11452621",
        "ECCENTRICITY": "0.00316190",
        "INCLINATION": "9.9526",
        "RA_OF_ASC_NODE": "121.0388",
        "ARG_OF_PERICENTER": "324.4207",
        "MEAN_ANOMALY": "35.3902",
        "EPHEMERIS_TYPE": "0",
        "CLASSIFICATION_TYPE": "U",
        "NORAD_CAT_ID": "52939",
        "ELEMENT_SET_NO": "999",
        "REV_AT_EPOCH": "11668",
        "BSTAR": "0.00072799000000",
        "MEAN_MOTION_DOT": "0.00013704",
        "MEAN_MOTION_DDOT": "0.0000000000000",
        "SEMIMAJOR_AXIS": "6909.906",
        "PERIOD": "95.273",
        "APOAPSIS": "553.620",
        "PERIAPSIS": "509.923",
        "OBJECT_TYPE": "PAYLOAD",
        "RCS_SIZE": "LARGE",
        "COUNTRY_CODE": "IND",
        "LAUNCH_DATE": "2022-06-30",
        "SITE": "SRI",
        "DECAY_DATE": null,
        "FILE": "4427604",
        "GP_ID": "264741291",
        "TLE_LINE0": "0 POEM",
        "TLE_LINE1": "1 52939U 22072E   24223.87476470  .00013704  00000-0  72799-3 0  9999",
        "TLE_LINE2": "2 52939   9.9526 121.0388 0031619 324.4207  35.3902 15.11452621116688"
    },
    {
        "CCSDS_OMM_VERS": "3.0",
        "COMMENT": "GENERATED VIA SPACE-TRACK.ORG API",
        "CREATION_DATE": "2024-08-10T22:56:16",
        "ORIGINATOR": "18 SPCS",
        "OBJECT_NAME": "STARLINK-5341",
        "OBJECT_ID": "2023-010U",
        "CENTER_NAME": "EARTH",
        "REF_FRAME": "TEME",
        "TIME_SYSTEM": "UTC",
        "MEAN_ELEMENT_THEORY": "SGP4",
        "EPOCH": "2024-08-10T20:59:36.776544",
        "MEAN_MOTION": "14.98337044",
        "ECCENTRICITY": "0.00029520",
        "INCLINATION": "70.0036",
        "RA_OF_ASC_NODE": "16.4854",
        "ARG_OF_PERICENTER": "262.1956",
        "MEAN_ANOMALY": "97.8869",
        "EPHEMERIS_TYPE": "0",
        "CLASSIFICATION_TYPE": "U",
        "NORAD_CAT_ID": "55287",
        "ELEMENT_SET_NO": "999",
        "REV_AT_EPOCH": "8719",
        "BSTAR": "0.00031560000000",
        "MEAN_MOTION_DOT": "0.00003675",
        "MEAN_MOTION_DDOT": "0.0000000000000",
        "SEMIMAJOR_AXIS": "6950.171",
        "PERIOD": "96.107",
        "APOAPSIS": "574.088",
        "PERIAPSIS": "569.984",
        "OBJECT_TYPE": "PAYLOAD",
        "RCS_SIZE": "LARGE",
        "COUNTRY_CODE": "US",
        "LAUNCH_DATE": "2023-01-19",
        "SITE": "AFWTR",
        "DECAY_DATE": null,
        "FILE": "4427683",
        "GP_ID": "264740662",
        "TLE_LINE0": "0 STARLINK-5341",
        "TLE_LINE1": "1 55287U 23010U   24223.87473121  .00003675  00000-0  31560-3 0  9998",
        "TLE_LINE2": "2 55287  70.0036  16.4854 0002952 262.1956  97.8869 14.98337044 87197"
    }
]